{
  "type": "FeatureCollection",
  "features": [
    {
      "type": "Feature",
      "properties": {
        "norad_id": 30596,
        "name": "FENGYUN 1C DEB",
        "group": "fengyun-1c-debris",
        "lat": -53.07283307991455,
        "lon": -1.3347327066242691,
        "alt_km": 623.9696256910465,
        "timestamp": "2025-12-15T15:53:20.129402+00:00",
        "meta_object_name": "FENGYUN 1C DEB",
        "meta_object_id": "1999-025AMB",
        "meta_epoch": "2025-12-13T12:49:27.051168",
        "meta_mean_motion": 14.343648,
        "meta_eccentricity": 0.02472703,
        "meta_inclination": 98.4132,
        "meta_ra_of_asc_node": 345.2348,
        "meta_arg_of_pericenter": 286.7158,
        "meta_mean_anomaly": 197.7186,
        "meta_ephemeris_type": 0,
        "meta_classification_type": "U",
        "meta_norad_cat_id": 30596,
        "meta_element_set_no": 999,
        "meta_rev_at_epoch": 98572,
        "meta_bstar": 0.00052404233,
        "meta_mean_motion_dot": 2.025e-05,
        "meta_mean_motion_ddot": 0,
        "tle_line1": "1 30596U 99025AMB 25347.53434087  .00002025  00000+0  52404-3 0  9999",
        "tle_line2": "2 30596  98.4132 345.2348 0247270 286.7158 197.7186 14.34364800985723"
      },
      "geometry": {
        "type": "Point",
        "coordinates": [
          -1.3347327066242691,
          -53.07283307991455
        ]
      }
    },
    {
      "type": "Feature",
      "properties": {
        "norad_id": 30597,
        "name": "FENGYUN 1C DEB",
        "group": "fengyun-1c-debris",
        "lat": 70.86857237726969,
        "lon": -100.47568675266503,
        "alt_km": 577.4015142669523,
        "timestamp": "2025-12-15T15:53:20.129411+00:00",
        "meta_object_name": "FENGYUN 1C DEB",
        "meta_object_id": "1999-025AMC",
        "meta_epoch": "2025-12-14T18:38:50.809344",
        "meta_mean_motion": 14.92671861,
        "meta_eccentricity": 0.00459826,
        "meta_inclination": 98.9416,
        "meta_ra_of_asc_node": 285.5125,
        "meta_arg_of_pericenter": 156.9336,
        "meta_mean_anomaly": 203.3958,
        "meta_ephemeris_type": 0,
        "meta_classification_type": "U",
        "meta_norad_cat_id": 30597,
        "meta_element_set_no": 999,
        "meta_rev_at_epoch": 98567,
        "meta_bstar": 0.0034963538,
        "meta_mean_motion_dot": 0.00036895,
        "meta_mean_motion_ddot": 0,
        "tle_line1": "1 30597U 99025AMC 25348.77697696  .00036895  00000+0  34964-2 0  9996",
        "tle_line2": "2 30597  98.9416 285.5125 0045982 156.9336 203.3958 14.92671861985672"
      },
      "geometry": {
        "type": "Point",
        "coordinates": [
          -100.47568675266503,
          70.86857237726969
        ]
      }
    },
    {
      "type": "Feature",
      "properties": {
        "norad_id": 30599,
        "name": "FENGYUN 1C DEB",
        "group": "fengyun-1c-debris",
        "lat": 62.89533864972663,
        "lon": -161.58384878358038,
        "alt_km": 982.7352914092826,
        "timestamp": "2025-12-15T15:53:20.129420+00:00",
        "meta_object_name": "FENGYUN 1C DEB",
        "meta_object_id": "1999-025AME",
        "meta_epoch": "2025-12-14T12:17:15.447840",
        "meta_mean_motion": 14.19702201,
        "meta_eccentricity": 0.03021713,
        "meta_inclination": 98.6045,
        "meta_ra_of_asc_node": 0.0894,
        "meta_arg_of_pericenter": 339.6437,
        "meta_mean_anomaly": 19.2901,
        "meta_ephemeris_type": 0,
        "meta_classification_type": "U",
        "meta_norad_cat_id": 30599,
        "meta_element_set_no": 999,
        "meta_rev_at_epoch": 97192,
        "meta_bstar": 0.00078552561,
        "meta_mean_motion_dot": 2.576e-05,
        "meta_mean_motion_ddot": 0,
        "tle_line1": "1 30599U 99025AME 25348.51198435  .00002576  00000+0  78553-3 0  9999",
        "tle_line2": "2 30599  98.6045   0.0894 0302171 339.6437  19.2901 14.19702201971927"
      },
      "geometry": {
        "type": "Point",
        "coordinates": [
          -161.58384878358038,
          62.89533864972663
        ]
      }
    },
    {
      "type": "Feature",
      "properties": {
        "norad_id": 30600,
        "name": "FENGYUN 1C DEB",
        "group": "fengyun-1c-debris",
        "lat": 81.29297108836056,
        "lon": -140.2303150582456,
        "alt_km": 1066.774903859282,
        "timestamp": "2025-12-15T15:53:20.129429+00:00",
        "meta_object_name": "FENGYUN 1C DEB",
        "meta_object_id": "1999-025AMF",
        "meta_epoch": "2025-12-14T07:02:03.723360",
        "meta_mean_motion": 14.07540528,
        "meta_eccentricity": 0.03276521,
        "meta_inclination": 98.3873,
        "meta_ra_of_asc_node": 292.935,
        "meta_arg_of_pericenter": 242.942,
        "meta_mean_anomaly": 113.7967,
        "meta_ephemeris_type": 0,
        "meta_classification_type": "U",
        "meta_norad_cat_id": 30600,
        "meta_element_set_no": 999,
        "meta_rev_at_epoch": 94454,
        "meta_bstar": 0.0035336783,
        "meta_mean_motion_dot": 9.708e-05,
        "meta_mean_motion_ddot": 0,
        "tle_line1": "1 30600U 99025AMF 25348.29309865  .00009708  00000+0  35337-2 0  9994",
        "tle_line2": "2 30600  98.3873 292.9350 0327652 242.9420 113.7967 14.07540528944543"
      },
      "geometry": {
        "type": "Point",
        "coordinates": [
          -140.2303150582456,
          81.29297108836056
        ]
      }
    },
    {
      "type": "Feature",
      "properties": {
        "norad_id": 30602,
        "name": "FENGYUN 1C DEB",
        "group": "fengyun-1c-debris",
        "lat": -78.70607863149678,
        "lon": 31.165662145419137,
        "alt_km": 606.9305023781926,
        "timestamp": "2025-12-15T15:53:20.129440+00:00",
        "meta_object_name": "FENGYUN 1C DEB",
        "meta_object_id": "1999-025AMH",
        "meta_epoch": "2025-12-14T18:01:47.790048",
        "meta_mean_motion": 14.91608249,
        "meta_eccentricity": 0.00114594,
        "meta_inclination": 99.0326,
        "meta_ra_of_asc_node": 262.9241,
        "meta_arg_of_pericenter": 114.6538,
        "meta_mean_anomaly": 300.4624,
        "meta_ephemeris_type": 0,
        "meta_classification_type": "U",
        "meta_norad_cat_id": 30602,
        "meta_element_set_no": 999,
        "meta_rev_at_epoch": 97835,
        "meta_bstar": 0.0054412908,
        "meta_mean_motion_dot": 0.00055032,
        "meta_mean_motion_ddot": 0,
        "tle_line1": "1 30602U 99025AMH 25348.75124757  .00055032  00000+0  54413-2 0  9999",
        "tle_line2": "2 30602  99.0326 262.9241 0011459 114.6538 300.4624 14.91608249978351"
      },
      "geometry": {
        "type": "Point",
        "coordinates": [
          31.165662145419137,
          -78.70607863149678
        ]
      }
    },
    {
      "type": "Feature",
      "properties": {
        "norad_id": 30603,
        "name": "FENGYUN 1C DEB",
        "group": "fengyun-1c-debris",
        "lat": 25.757937287694283,
        "lon": -163.63308966651107,
        "alt_km": 849.7200130363353,
        "timestamp": "2025-12-15T15:53:20.129449+00:00",
        "meta_object_name": "FENGYUN 1C DEB",
        "meta_object_id": "1999-025AMJ",
        "meta_epoch": "2025-12-14T01:15:01.326816",
        "meta_mean_motion": 13.84126342,
        "meta_eccentricity": 0.01833825,
        "meta_inclination": 98.4097,
        "meta_ra_of_asc_node": 10.8313,
        "meta_arg_of_pericenter": 201.768,
        "meta_mean_anomaly": 215.8001,
        "meta_ephemeris_type": 0,
        "meta_classification_type": "U",
        "meta_norad_cat_id": 30603,
        "meta_element_set_no": 999,
        "meta_rev_at_epoch": 94894,
        "meta_bstar": 0.001521021,
        "meta_mean_motion_dot": 1.892e-05,
        "meta_mean_motion_ddot": 0,
        "tle_line1": "1 30603U 99025AMJ 25348.05209869  .00001892  00000+0  15210-2 0  9998",
        "tle_line2": "2 30603  98.4097  10.8313 0183382 201.7680 215.8001 13.84126342948941"
      },
      "geometry": {
        "type": "Point",
        "coordinates": [
          -163.63308966651107,
          25.757937287694283
        ]
      }
    },
    {
      "type": "Feature",
      "properties": {
        "norad_id": 30604,
        "name": "FENGYUN 1C DEB",
        "group": "fengyun-1c-debris",
        "lat": -53.02533420201931,
        "lon": -166.95095195722348,
        "alt_km": 903.3808604713004,
        "timestamp": "2025-12-15T15:53:20.129460+00:00",
        "meta_object_name": "FENGYUN 1C DEB",
        "meta_object_id": "1999-025AMK",
        "meta_epoch": "2025-12-14T14:11:56.458752",
        "meta_mean_motion": 14.23613399,
        "meta_eccentricity": 0.02095624,
        "meta_inclination": 98.4026,
        "meta_ra_of_asc_node": 23.348,
        "meta_arg_of_pericenter": 1.4465,
        "meta_mean_anomaly": 151.5881,
        "meta_ephemeris_type": 0,
        "meta_classification_type": "U",
        "meta_norad_cat_id": 30604,
        "meta_element_set_no": 999,
        "meta_rev_at_epoch": 97865,
        "meta_bstar": 0.00034926477,
        "meta_mean_motion_dot": 9.53e-06,
        "meta_mean_motion_ddot": 0,
        "tle_line1": "1 30604U 99025AMK 25348.59162568  .00000953  00000+0  34926-3 0  9995",
        "tle_line2": "2 30604  98.4026  23.3480 0209562   1.4465 151.5881 14.23613399978653"
      },
      "geometry": {
        "type": "Point",
        "coordinates": [
          -166.95095195722348,
          -53.02533420201931
        ]
      }
    }
  ]
}